IRIDIUM 155             
1 43573U 18061E   22016.48156901  .00000149  00000+0  46130-4 0  9994
2 43573  86.3968  10.6561 0001843  98.5278 261.6127 14.34217586182207
IRIDIUM 154             
1 43574U 18061F   22016.53230122  .00000135  00000+0  41115-4 0  9992
2 43574  86.3972  10.6913 0002239  82.3813 277.7637 14.34216658182269
IRIDIUM 163             
1 43575U 18061G   22016.51327501  .00000136  00000+0  41472-4 0  9996
2 43575  86.3969  10.6638 0002599  92.1060 268.0433 14.34219054182239
IRIDIUM 156             
1 43576U 18061H   22016.48791032  .00000177  00000+0  56079-4 0  9991
2 43576  86.3969  10.6798 0002253  97.5757 262.5694 14.34218786182224
IRIDIUM 164             
1 43577U 18061J   22016.46887267  .00000144  00000+0  44299-4 0  9991
2 43577  86.3972  10.7035 0002345  85.1613 274.9851 14.34219685182265
IRIDIUM 159             
1 43578U 18061K   22016.50692337  .00000136  00000+0  41571-4 0  9990
2 43578  86.3969  10.6582 0002242  84.8338 275.3114 14.34219919182238
IRIDIUM 180             
1 43922U 19002A   22016.50643986  .00000144  00000+0  44503-4 0  9992
2 43922  86.3984 307.5309 0002762  72.7307 287.4191 14.34218771157845
IRIDIUM 176             
1 43923U 19002B   22016.55708214  .00000082  00000+0  91169-5 0  9996
2 43923  86.6117 307.5445 0002183  83.2900 276.8566 14.72243695161984
IRIDIUM 168             
1 43924U 19002C   22016.50009313  .00000142  00000+0  43661-4 0  9996
2 43924  86.3986 307.5653 0002219  77.2992 282.8452 14.34219044157829
IRIDIUM 173             
1 43925U 19002D   22016.55718309  .00000143  00000+0  43876-4 0  9993
2 43925  86.3982 307.4960 0002231  80.5743 279.5705 14.34216520157810
IRIDIUM 169             
1 43926U 19002E   22016.39298631  .00000158  00000+0  45053-4 0  9992
2 43926  86.4243 339.1654 0002741 241.4436 118.6487 14.38601919158351
IRIDIUM 172             
1 43927U 19002F   22016.55082477  .00000152  00000+0  47042-4 0  9994
2 43927  86.3982 307.5016 0002287  78.8564 281.2888 14.34219638157823
IRIDIUM 175             
1 43928U 19002G   22016.55090953  .00000471  00000+0  70822-4 0  9999
2 43928  86.6119 307.3730 0002629  82.4829 277.6687 14.72247282161970
IRIDIUM 171             
1 43929U 19002H   22016.53178811  .00000143  00000+0  43956-4 0  9992
2 43929  86.3993 307.6369 0002187  77.1724 282.9716 14.34215874157813
IRIDIUM 170             
1 43930U 19002J   22016.56326932  .00000204  00000+0  28511-4 0  9994
2 43930  86.6116 307.5476 0002329  82.6590 277.4892 14.72244721161996
IRIDIUM 167             
1 43931U 19002K   22016.52544900  .00000146  00000+0  45168-4 0  9990
2 43931  86.3983 307.5203 0002490  72.6166 287.5301 14.34227311157818
